[{"OBJECT_NAME":"CORVUS BC1","OBJECT_ID":"2017-042Y","EPOCH":"2026-03-09T22:24:00.973440","MEAN_MOTION":15.05817893,"ECCENTRICITY":0.00132832,"INCLINATION":97.3986,"RA_OF_ASC_NODE":234.9925,"ARG_OF_PERICENTER":71.1953,"MEAN_ANOMALY":289.0714,"EPHEMERIS_TYPE":0,"CLASSIFICATION_TYPE":"U","NORAD_CAT_ID":42847,"ELEMENT_SET_NO":999,"REV_AT_EPOCH":47215,"BSTAR":0.00033801202,"MEAN_MOTION_DOT":4.853e-5,"MEAN_MOTION_DDOT":0},{"OBJECT_NAME":"STARLINK-5136","OBJECT_ID":"2023-061AS","EPOCH":"2026-03-09T07:56:02.917248","MEAN_MOTION":15.02517705,"ECCENTRICITY":0.00015392,"INCLINATION":43.0073,"RA_OF_ASC_NODE":186.1584,"ARG_OF_PERICENTER":277.0903,"MEAN_ANOMALY":82.9765,"EPHEMERIS_TYPE":0,"CLASSIFICATION_TYPE":"U","NORAD_CAT_ID":56414,"ELEMENT_SET_NO":999,"REV_AT_EPOCH":15685,"BSTAR":-0.00035319091,"MEAN_MOTION_DOT":-4.969e-5,"MEAN_MOTION_DDOT":0}]
