CORVUS BC1              
1 42847U 17042Y   26068.93334460  .00004853  00000+0  33801-3 0  9990
2 42847  97.3986 234.9925 0013283  71.1953 289.0714 15.05817892472152
STARLINK-5136           
1 56414U 23061AS  26068.33058932 -.00004969  00000+0 -35319-3 0  9990
2 56414  43.0073 186.1584 0001539 277.0903  82.9765 15.02517705156853
